{"type": "FeatureCollection", "features": [ {"type": "Feature", "properties": {"norad_id": 41019, "name": "GPS BIIF-11 (PRN 10)", "group": "gnss", "lat": -12.448241913056261, "lon": 30.0719580506972, "alt_km": 20307.617888789136, "timestamp": "2025-12-03T19:33:07.218934+00:00", "meta": {"OBJECT_NAME": "GPS BIIF-11 (PRN 10)", "OBJECT_ID": "2015-062A", "EPOCH": "2025-12-01T20:11:25.978560", "MEAN_MOTION": 2.00566903, "ECCENTRICITY": 0.01105097, "INCLINATION": 56.8244, "RA_OF_ASC_NODE": 38.424, "ARG_OF_PERICENTER": 229.6519, "MEAN_ANOMALY": 129.4268, "EPHEMERIS_TYPE": 0, "CLASSIFICATION_TYPE": "U", "NORAD_CAT_ID": 41019, "ELEMENT_SET_NO": 999, "REV_AT_EPOCH": 7387, "BSTAR": 0, "MEAN_MOTION_DOT": -6.5e-07, "MEAN_MOTION_DDOT": 0}, "tle": {"line1": "1 41019U 15062A   25335.84127290 -.00000065  00000+0  00000+0 0  9990", "line2": "2 41019  56.8244  38.4240 0110509 229.6519 129.4268  2.00566903 73875"}}, "geometry": {"type": "Point", "coordinates": [30.0719580506972, -12.448241913056261]}}, {"type": "Feature", "properties": {"norad_id": 41028, "name": "GSAT-15 (GAGAN/PRN 139)", "group": "gnss", "lat": 0.01375109155326595, "lon": 99.62766003492126, "alt_km": 35794.83120993699, "timestamp": "2025-12-03T19:33:07.218984+00:00", "meta": {"OBJECT_NAME": "GSAT-15 (GAGAN/PRN 139)", "OBJECT_ID": "2015-065A", "EPOCH": "2025-12-03T10:46:37.837920", "MEAN_MOTION": 1.00272014, "ECCENTRICITY": 0.0002986, "INCLINATION": 0.0283, "RA_OF_ASC_NODE": 82.5972, "ARG_OF_PERICENTER": 150.8081, "MEAN_ANOMALY": 94.2882, "EPHEMERIS_TYPE": 0, "CLASSIFICATION_TYPE": "U", "NORAD_CAT_ID": 41028, "ELEMENT_SET_NO": 999, "REV_AT_EPOCH": 3683, "BSTAR": 0, "MEAN_MOTION_DOT": -2.4e-06, "MEAN_MOTION_DDOT": 0}, "tle": {"line1": "1 41028U 15065A   25337.44904905 -.00000240  00000+0  00000+0 0  9992", "line2": "2 41028   0.0283  82.5972 0002986 150.8081  94.2882  1.00272014 36831"}}, "geometry": {"type": "Point", "coordinates": [99.62766003492126, 0.01375109155326595]}}, {"type": "Feature", "properties": {"norad_id": 41174, "name": "GSAT0209 (GALILEO 12)", "group": "gnss", "lat": 49.25364496429954, "lon": 158.9431294190039, "alt_km": 23213.854060834918, "timestamp": "2025-12-03T19:33:07.218998+00:00", "meta": {"OBJECT_NAME": "GSAT0209 (GALILEO 12)", "OBJECT_ID": "2015-079A", "EPOCH": "2025-12-01T22:43:10.411392", "MEAN_MOTION": 1.70474306, "ECCENTRICITY": 0.0002352, "INCLINATION": 55.7062, "RA_OF_ASC_NODE": 106.6773, "ARG_OF_PERICENTER": 357.4206, "MEAN_ANOMALY": 2.5431, "EPHEMERIS_TYPE": 0, "CLASSIFICATION_TYPE": "U", "NORAD_CAT_ID": 41174, "ELEMENT_SET_NO": 999, "REV_AT_EPOCH": 6141, "BSTAR": 0, "MEAN_MOTION_DOT": 3.5e-07, "MEAN_MOTION_DDOT": 0}, "tle": {"line1": "1 41174U 15079A   25335.94664828  .00000035  00000+0  00000+0 0  9990", "line2": "2 41174  55.7062 106.6773 0002352 357.4206   2.5431  1.70474306 61412"}}, "geometry": {"type": "Point", "coordinates": [158.9431294190039, 49.25364496429954]}}, {"type": "Feature", "properties": {"norad_id": 41175, "name": "GSAT0208 (GALILEO 11)", "group": "gnss", "lat": -50.30813068883884, "lon": 51.339897130303086, "alt_km": 23226.60148758701, "timestamp": "2025-12-03T19:33:07.219010+00:00", "meta": {"OBJECT_NAME": "GSAT0208 (GALILEO 11)", "OBJECT_ID": "2015-079B", "EPOCH": "2025-12-03T08:09:32.137920", "MEAN_MOTION": 1.70474152, "ECCENTRICITY": 0.0001907, "INCLINATION": 55.7055, "RA_OF_ASC_NODE": 106.6362, "ARG_OF_PERICENTER": 9.6551, "MEAN_ANOMALY": 350.3047, "EPHEMERIS_TYPE": 0, "CLASSIFICATION_TYPE": "U", "NORAD_CAT_ID": 41175, "ELEMENT_SET_NO": 999, "REV_AT_EPOCH": 6185, "BSTAR": 0, "MEAN_MOTION_DOT": 2.2e-07, "MEAN_MOTION_DDOT": 0}, "tle": {"line1": "1 41175U 15079B   25337.33995530  .00000022  00000+0  00000+0 0  9999", "line2": "2 41175  55.7055 106.6362 0001907   9.6551 350.3047  1.70474152 61857"}}, "geometry": {"type": "Point", "coordinates": [51.339897130303086, -50.30813068883884]}}, {"type": "Feature", "properties": {"norad_id": 41241, "name": "IRNSS-1E", "group": "gnss", "lat": 26.4207890619586, "lon": 112.9172014079155, "alt_km": 35842.65926321812, "timestamp": "2025-12-03T19:33:07.219021+00:00", "meta": {"OBJECT_NAME": "IRNSS-1E", "OBJECT_ID": "2016-003A", "EPOCH": "2025-12-02T15:46:14.293632", "MEAN_MOTION": 1.00278203, "ECCENTRICITY": 0.00219463, "INCLINATION": 32.8036, "RA_OF_ASC_NODE": 62.6001, "ARG_OF_PERICENTER": 186.4596, "MEAN_ANOMALY": 170.9534, "EPHEMERIS_TYPE": 0, "CLASSIFICATION_TYPE": "U", "NORAD_CAT_ID": 41241, "ELEMENT_SET_NO": 999, "REV_AT_EPOCH": 3610, "BSTAR": 0, "MEAN_MOTION_DOT": -3.03e-06, "MEAN_MOTION_DDOT": 0}, "tle": {"line1": "1 41241U 16003A   25336.65710988 -.00000303  00000+0  00000+0 0  9990", "line2": "2 41241  32.8036  62.6001 0021946 186.4596 170.9534  1.00278203 36104"}}, "geometry": {"type": "Point", "coordinates": [112.9172014079155, 26.4207890619586]}}, {"type": "Feature", "properties": {"norad_id": 41328, "name": "GPS BIIF-12 (PRN 32)", "group": "gnss", "lat": -52.579260433168656, "lon": 32.85805113881805, "alt_km": 20006.455305351155, "timestamp": "2025-12-03T19:33:07.219032+00:00", "meta": {"OBJECT_NAME": "GPS BIIF-12 (PRN 32)", "OBJECT_ID": "2016-007A", "EPOCH": "2025-12-01T22:09:54.041760", "MEAN_MOTION": 2.0056114, "ECCENTRICITY": 0.00916487, "INCLINATION": 55.3999, "RA_OF_ASC_NODE": 97.2864, "ARG_OF_PERICENTER": 243.3101, "MEAN_ANOMALY": 115.7282, "EPHEMERIS_TYPE": 0, "CLASSIFICATION_TYPE": "U", "NORAD_CAT_ID": 41328, "ELEMENT_SET_NO": 999, "REV_AT_EPOCH": 7188, "BSTAR": 0, "MEAN_MOTION_DOT": 1.1e-07, "MEAN_MOTION_DDOT": 0}, "tle": {"line1": "1 41328U 16007A   25335.92354215  .00000011  00000+0  00000+0 0  9991", "line2": "2 41328  55.3999  97.2864 0091648 243.3101 115.7282  2.00561140 71887"}}, "geometry": {"type": "Point", "coordinates": [32.85805113881805, -52.579260433168656]}}, {"type": "Feature", "properties": {"norad_id": 41330, "name": "COSMOS 2514 (751)", "group": "gnss", "lat": 16.47800070182376, "lon": 131.8165966473034, "alt_km": 19111.401190318637, "timestamp": "2025-12-03T19:33:07.219043+00:00", "meta": {"OBJECT_NAME": "COSMOS 2514 (751)", "OBJECT_ID": "2016-008A", "EPOCH": "2025-12-02T04:41:58.161984", "MEAN_MOTION": 2.13102491, "ECCENTRICITY": 0.00124931, "INCLINATION": 65.1398, "RA_OF_ASC_NODE": 319.7653, "ARG_OF_PERICENTER": 219.8518, "MEAN_ANOMALY": 140.0636, "EPHEMERIS_TYPE": 0, "CLASSIFICATION_TYPE": "U", "NORAD_CAT_ID": 41330, "ELEMENT_SET_NO": 999, "REV_AT_EPOCH": 7642, "BSTAR": 0, "MEAN_MOTION_DOT": -3.3e-07, "MEAN_MOTION_DDOT": 0}, "tle": {"line1": "1 41330U 16008A   25336.19581206 -.00000033  00000+0  00000+0 0  9992", "line2": "2 41330  65.1398 319.7653 0012493 219.8518 140.0636  2.13102491 76424"}}, "geometry": {"type": "Point", "coordinates": [131.8165966473034, 16.47800070182376]}}, {"type": "Feature", "properties": {"norad_id": 41384, "name": "IRNSS-1F", "group": "gnss", "lat": -4.2904181469508735, "lon": 38.86542552188223, "alt_km": 35831.98678733253, "timestamp": "2025-12-03T19:33:07.219069+00:00", "meta": {"OBJECT_NAME": "IRNSS-1F", "OBJECT_ID": "2016-015A", "EPOCH": "2025-12-03T01:55:20.988192", "MEAN_MOTION": 1.00267525, "ECCENTRICITY": 0.00224023, "INCLINATION": 4.8561, "RA_OF_ASC_NODE": 101.5395, "ARG_OF_PERICENTER": 179.5147, "MEAN_ANOMALY": 212.3606, "EPHEMERIS_TYPE": 0, "CLASSIFICATION_TYPE": "U", "NORAD_CAT_ID": 41384, "ELEMENT_SET_NO": 999, "REV_AT_EPOCH": 3570, "BSTAR": 0, "MEAN_MOTION_DOT": 1.77e-06, "MEAN_MOTION_DDOT": 0}, "tle": {"line1": "1 41384U 16015A   25337.08010403  .00000177  00000+0  00000+0 0  9992", "line2": "2 41384   4.8561 101.5395 0022402 179.5147 212.3606  1.00267525 35707"}}, "geometry": {"type": "Point", "coordinates": [38.86542552188223, -4.2904181469508735]}}, {"type": "Feature", "properties": {"norad_id": 41434, "name": "BEIDOU-2 IGSO-6 (C13)", "group": "gnss", "lat": 47.173443575680295, "lon": 78.58518294679374, "alt_km": 36034.07777601516, "timestamp": "2025-12-03T19:33:07.219081+00:00", "meta": {"OBJECT_NAME": "BEIDOU-2 IGSO-6 (C13)", "OBJECT_ID": "2016-021A", "EPOCH": "2025-12-01T15:57:35.287200", "MEAN_MOTION": 1.00256562, "ECCENTRICITY": 0.00591323, "INCLINATION": 59.9483, "RA_OF_ASC_NODE": 40.0119, "ARG_OF_PERICENTER": 231.2834, "MEAN_ANOMALY": 130.8807, "EPHEMERIS_TYPE": 0, "CLASSIFICATION_TYPE": "U", "NORAD_CAT_ID": 41434, "ELEMENT_SET_NO": 999, "REV_AT_EPOCH": 3550, "BSTAR": 0, "MEAN_MOTION_DOT": -1.55e-06, "MEAN_MOTION_DDOT": 0}, "tle": {"line1": "1 41434U 16021A   25335.66499175 -.00000155  00000+0  00000+0 0  9991", "line2": "2 41434  59.9483  40.0119 0059132 231.2834 130.8807  1.00256562 35501"}}, "geometry": {"type": "Point", "coordinates": [78.58518294679374, 47.173443575680295]}}, {"type": "Feature", "properties": {"norad_id": 41469, "name": "IRNSS-1G", "group": "gnss", "lat": 2.5941676163092127, "lon": 135.54089476348207, "alt_km": 35781.84518812794, "timestamp": "2025-12-03T19:33:07.219097+00:00", "meta": {"OBJECT_NAME": "IRNSS-1G", "OBJECT_ID": "2016-027A", "EPOCH": "2025-12-03T10:37:45.642432", "MEAN_MOTION": 1.00266057, "ECCENTRICITY": 0.0001387, "INCLINATION": 4.7139, "RA_OF_ASC_NODE": 102.328, "ARG_OF_PERICENTER": 15.8146, "MEAN_ANOMALY": 243.3011, "EPHEMERIS_TYPE": 0, "CLASSIFICATION_TYPE": "U", "NORAD_CAT_ID": 41469, "ELEMENT_SET_NO": 999, "REV_AT_EPOCH": 3521, "BSTAR": 0, "MEAN_MOTION_DOT": -3.17e-06, "MEAN_MOTION_DDOT": 0}, "tle": {"line1": "1 41469U 16027A   25337.44288938 -.00000317  00000+0  00000+0 0  9996", "line2": "2 41469   4.7139 102.3280 0001387  15.8146 243.3011  1.00266057 35212"}}, "geometry": {"type": "Point", "coordinates": [135.54089476348207, 2.5941676163092127]}}]}